{"type": "FeatureCollection", "features": [ {"type": "Feature", "properties": {"norad_id": 35453, "name": "COSMOS 2251 DEB", "group": "cosmos-2251-debris", "lat": 37.63067046779178, "lon": -154.39367353705578, "alt_km": 721.8735025715341, "timestamp": "2025-12-02T23:34:15.913416+00:00", "meta": {"OBJECT_NAME": "COSMOS 2251 DEB", "OBJECT_ID": "1993-036AKX", "EPOCH": "2025-11-29T13:05:55.541472", "MEAN_MOTION": 14.37887031, "ECCENTRICITY": 0.00682488, "INCLINATION": 74.0102, "RA_OF_ASC_NODE": 44.7136, "ARG_OF_PERICENTER": 181.7658, "MEAN_ANOMALY": 178.3266, "EPHEMERIS_TYPE": 0, "CLASSIFICATION_TYPE": "U", "NORAD_CAT_ID": 35453, "ELEMENT_SET_NO": 999, "REV_AT_EPOCH": 86029, "BSTAR": 0.00074250285, "MEAN_MOTION_DOT": 2.276e-05, "MEAN_MOTION_DDOT": 0}, "tle": {"line1": "1 35453U 93036AKX 25333.54578173  .00002276  00000+0  74250-3 0  9994", "line2": "2 35453  74.0102  44.7136 0068248 181.7658 178.3266 14.37887031860295"}}, "geometry": {"type": "Point", "coordinates": [-154.39367353705578, 37.63067046779178]}}, {"type": "Feature", "properties": {"norad_id": 35455, "name": "COSMOS 2251 DEB", "group": "cosmos-2251-debris", "lat": -43.75782157679685, "lon": -62.79773080778855, "alt_km": 752.1063909594277, "timestamp": "2025-12-02T23:34:15.913426+00:00", "meta": {"OBJECT_NAME": "COSMOS 2251 DEB", "OBJECT_ID": "1993-036AKZ", "EPOCH": "2025-12-02T08:52:17.920704", "MEAN_MOTION": 14.49202551, "ECCENTRICITY": 0.0098705, "INCLINATION": 74.0278, "RA_OF_ASC_NODE": 314.2686, "ARG_OF_PERICENTER": 60.4192, "MEAN_ANOMALY": 300.6759, "EPHEMERIS_TYPE": 0, "CLASSIFICATION_TYPE": "U", "NORAD_CAT_ID": 35455, "ELEMENT_SET_NO": 999, "REV_AT_EPOCH": 86393, "BSTAR": 0.0016096, "MEAN_MOTION_DOT": 6.5e-05, "MEAN_MOTION_DDOT": 0}, "tle": {"line1": "1 35455U 93036AKZ 25336.36965186  .00006500  00000+0  16096-2 0  9990", "line2": "2 35455  74.0278 314.2686 0098705  60.4192 300.6759 14.49202551863935"}}, "geometry": {"type": "Point", "coordinates": [-62.79773080778855, -43.75782157679685]}}, {"type": "Feature", "properties": {"norad_id": 35456, "name": "COSMOS 2251 DEB", "group": "cosmos-2251-debris", "lat": -23.85700731215094, "lon": 129.15738179469332, "alt_km": 624.5955516256763, "timestamp": "2025-12-02T23:34:15.913437+00:00", "meta": {"OBJECT_NAME": "COSMOS 2251 DEB", "OBJECT_ID": "1993-036ALA", "EPOCH": "2025-12-01T03:33:20.272320", "MEAN_MOTION": 14.6906786, "ECCENTRICITY": 0.00649292, "INCLINATION": 73.9491, "RA_OF_ASC_NODE": 140.0403, "ARG_OF_PERICENTER": 352.5373, "MEAN_ANOMALY": 7.4823, "EPHEMERIS_TYPE": 0, "CLASSIFICATION_TYPE": "U", "NORAD_CAT_ID": 35456, "ELEMENT_SET_NO": 999, "REV_AT_EPOCH": 65705, "BSTAR": 0.0015385209, "MEAN_MOTION_DOT": 9.308e-05, "MEAN_MOTION_DDOT": 0}, "tle": {"line1": "1 35456U 93036ALA 25335.14815130  .00009308  00000+0  15385-2 0  9998", "line2": "2 35456  73.9491 140.0403 0064929 352.5373   7.4823 14.69067860657052"}}, "geometry": {"type": "Point", "coordinates": [129.15738179469332, -23.85700731215094]}}, {"type": "Feature", "properties": {"norad_id": 35459, "name": "COSMOS 2251 DEB", "group": "cosmos-2251-debris", "lat": 32.408156424774866, "lon": -143.9948261203868, "alt_km": 771.0770770178351, "timestamp": "2025-12-02T23:34:15.913447+00:00", "meta": {"OBJECT_NAME": "COSMOS 2251 DEB", "OBJECT_ID": "1993-036ALD", "EPOCH": "2025-12-01T22:21:32.007744", "MEAN_MOTION": 14.37436198, "ECCENTRICITY": 0.00166822, "INCLINATION": 73.8706, "RA_OF_ASC_NODE": 207.3714, "ARG_OF_PERICENTER": 158.6603, "MEAN_ANOMALY": 201.5249, "EPHEMERIS_TYPE": 0, "CLASSIFICATION_TYPE": "U", "NORAD_CAT_ID": 35459, "ELEMENT_SET_NO": 999, "REV_AT_EPOCH": 58206, "BSTAR": 0.00027997141, "MEAN_MOTION_DOT": 8.11e-06, "MEAN_MOTION_DDOT": 0}, "tle": {"line1": "1 35459U 93036ALD 25335.93162046  .00000811  00000+0  27997-3 0  9992", "line2": "2 35459  73.8706 207.3714 0016682 158.6603 201.5249 14.37436198582065"}}, "geometry": {"type": "Point", "coordinates": [-143.9948261203868, 32.408156424774866]}}, {"type": "Feature", "properties": {"norad_id": 35462, "name": "COSMOS 2251 DEB", "group": "cosmos-2251-debris", "lat": 26.678031537761548, "lon": -65.32528021971183, "alt_km": 765.7824646074978, "timestamp": "2025-12-02T23:34:15.913457+00:00", "meta": {"OBJECT_NAME": "COSMOS 2251 DEB", "OBJECT_ID": "1993-036ALG", "EPOCH": "2025-12-01T03:45:45.448128", "MEAN_MOTION": 14.29124029, "ECCENTRICITY": 0.00870444, "INCLINATION": 74.036, "RA_OF_ASC_NODE": 289.718, "ARG_OF_PERICENTER": 327.319, "MEAN_ANOMALY": 32.2589, "EPHEMERIS_TYPE": 0, "CLASSIFICATION_TYPE": "U", "NORAD_CAT_ID": 35462, "ELEMENT_SET_NO": 999, "REV_AT_EPOCH": 66215, "BSTAR": 0.0017949723, "MEAN_MOTION_DOT": 4.718e-05, "MEAN_MOTION_DDOT": 0}, "tle": {"line1": "1 35462U 93036ALG 25335.15677602  .00004718  00000+0  17950-2 0  9996", "line2": "2 35462  74.0360 289.7180 0087044 327.3190  32.2589 14.29124029662158"}}, "geometry": {"type": "Point", "coordinates": [-65.32528021971183, 26.678031537761548]}}, {"type": "Feature", "properties": {"norad_id": 35465, "name": "COSMOS 2251 DEB", "group": "cosmos-2251-debris", "lat": -72.79012377017713, "lon": 147.34745072485364, "alt_km": 759.9208952766458, "timestamp": "2025-12-02T23:34:15.913468+00:00", "meta": {"OBJECT_NAME": "COSMOS 2251 DEB", "OBJECT_ID": "1993-036ALK", "EPOCH": "2025-11-29T22:48:34.232544", "MEAN_MOTION": 14.44263019, "ECCENTRICITY": 0.00634289, "INCLINATION": 73.9997, "RA_OF_ASC_NODE": 220.8763, "ARG_OF_PERICENTER": 24.0529, "MEAN_ANOMALY": 336.3567, "EPHEMERIS_TYPE": 0, "CLASSIFICATION_TYPE": "U", "NORAD_CAT_ID": 35465, "ELEMENT_SET_NO": 999, "REV_AT_EPOCH": 87057, "BSTAR": 0.00049692277, "MEAN_MOTION_DOT": 1.723e-05, "MEAN_MOTION_DDOT": 0}, "tle": {"line1": "1 35465U 93036ALK 25333.95039621  .00001723  00000+0  49692-3 0  9990", "line2": "2 35465  73.9997 220.8763 0063428  24.0529 336.3567 14.44263019870576"}}, "geometry": {"type": "Point", "coordinates": [147.34745072485364, -72.79012377017713]}}, {"type": "Feature", "properties": {"norad_id": 35469, "name": "COSMOS 2251 DEB", "group": "cosmos-2251-debris", "lat": -70.83596209185528, "lon": -13.341348808297365, "alt_km": 724.0528820699919, "timestamp": "2025-12-02T23:34:15.913479+00:00", "meta": {"OBJECT_NAME": "COSMOS 2251 DEB", "OBJECT_ID": "1993-036ALP", "EPOCH": "2025-12-01T11:30:18.514944", "MEAN_MOTION": 14.49801168, "ECCENTRICITY": 0.00774879, "INCLINATION": 74.0179, "RA_OF_ASC_NODE": 45.0354, "ARG_OF_PERICENTER": 203.0672, "MEAN_ANOMALY": 156.7004, "EPHEMERIS_TYPE": 0, "CLASSIFICATION_TYPE": "U", "NORAD_CAT_ID": 35469, "ELEMENT_SET_NO": 999, "REV_AT_EPOCH": 87948, "BSTAR": 0.0001544866, "MEAN_MOTION_DOT": 5.89e-06, "MEAN_MOTION_DDOT": 0}, "tle": {"line1": "1 35469U 93036ALP 25335.47938096  .00000589  00000+0  15449-3 0  9999", "line2": "2 35469  74.0179  45.0354 0077487 203.0672 156.7004 14.49801168879482"}}, "geometry": {"type": "Point", "coordinates": [-13.341348808297365, -70.83596209185528]}}, {"type": "Feature", "properties": {"norad_id": 35475, "name": "COSMOS 2251 DEB", "group": "cosmos-2251-debris", "lat": 19.66909230095283, "lon": -1.3329920570392917, "alt_km": 664.9666209779425, "timestamp": "2025-12-02T23:34:15.913489+00:00", "meta": {"OBJECT_NAME": "COSMOS 2251 DEB", "OBJECT_ID": "1993-036ALV", "EPOCH": "2025-12-02T06:30:21.330144", "MEAN_MOTION": 14.69388033, "ECCENTRICITY": 0.0021308, "INCLINATION": 74.022, "RA_OF_ASC_NODE": 185.9231, "ARG_OF_PERICENTER": 259.5642, "MEAN_ANOMALY": 100.3127, "EPHEMERIS_TYPE": 0, "CLASSIFICATION_TYPE": "U", "NORAD_CAT_ID": 35475, "ELEMENT_SET_NO": 999, "REV_AT_EPOCH": 65463, "BSTAR": 0.0018441, "MEAN_MOTION_DOT": 0.00010931, "MEAN_MOTION_DDOT": 0}, "tle": {"line1": "1 35475U 93036ALV 25336.27108021  .00010931  00000+0  18441-2 0  9998", "line2": "2 35475  74.0220 185.9231 0021308 259.5642 100.3127 14.69388033654630"}}, "geometry": {"type": "Point", "coordinates": [-1.3329920570392917, 19.66909230095283]}}, {"type": "Feature", "properties": {"norad_id": 35476, "name": "COSMOS 2251 DEB", "group": "cosmos-2251-debris", "lat": 21.355942875005347, "lon": -106.38384663310241, "alt_km": 643.6239392917714, "timestamp": "2025-12-02T23:34:15.913499+00:00", "meta": {"OBJECT_NAME": "COSMOS 2251 DEB", "OBJECT_ID": "1993-036ALW", "EPOCH": "2025-12-02T08:28:00.724224", "MEAN_MOTION": 14.75278986, "ECCENTRICITY": 0.0017226, "INCLINATION": 73.9781, "RA_OF_ASC_NODE": 81.3016, "ARG_OF_PERICENTER": 69.3737, "MEAN_ANOMALY": 346.9835, "EPHEMERIS_TYPE": 0, "CLASSIFICATION_TYPE": "U", "NORAD_CAT_ID": 35476, "ELEMENT_SET_NO": 999, "REV_AT_EPOCH": 87734, "BSTAR": 0.0023282, "MEAN_MOTION_DOT": 0.00015808, "MEAN_MOTION_DDOT": 0}, "tle": {"line1": "1 35476U 93036ALW 25336.35278616  .00015808  00000+0  23282-2 0  9993", "line2": "2 35476  73.9781  81.3016 0017226  69.3737 346.9835 14.75278986877348"}}, "geometry": {"type": "Point", "coordinates": [-106.38384663310241, 21.355942875005347]}}, {"type": "Feature", "properties": {"norad_id": 35580, "name": "COSMOS 2251 DEB", "group": "cosmos-2251-debris", "lat": -51.3781641385978, "lon": 36.51849388028485, "alt_km": 778.2088640844586, "timestamp": "2025-12-02T23:34:15.913510+00:00", "meta": {"OBJECT_NAME": "COSMOS 2251 DEB", "OBJECT_ID": "1993-036ALX", "EPOCH": "2025-11-11T02:25:47.460864", "MEAN_MOTION": 13.83664367, "ECCENTRICITY": 0.0284653, "INCLINATION": 73.9022, "RA_OF_ASC_NODE": 232.5156, "ARG_OF_PERICENTER": 243.9426, "MEAN_ANOMALY": 113.2144, "EPHEMERIS_TYPE": 0, "CLASSIFICATION_TYPE": "U", "NORAD_CAT_ID": 35580, "ELEMENT_SET_NO": 999, "REV_AT_EPOCH": 61819, "BSTAR": 0.0015271116, "MEAN_MOTION_DOT": 2.282e-05, "MEAN_MOTION_DDOT": 0}, "tle": {"line1": "1 35580U 93036ALX 25315.10124376  .00002282  00000+0  15271-2 0  9993", "line2": "2 35580  73.9022 232.5156 0284653 243.9426 113.2144 13.83664367618196"}}, "geometry": {"type": "Point", "coordinates": [36.51849388028485, -51.3781641385978]}}]}